TRANSPORTER-10 OBJECT AD
1 59125U 24043AD  26068.86032889  .00011954  00000+0  36311-3 0  9997
2 59125  97.5470 207.3753 0008984 221.4908 138.5653 15.34189901112026
STARLINK-32017          
1 60032U 24111S   26068.43367630 -.00001222  00000+0 -29137-4 0  9998
2 60032  53.1598  76.8789 0001211  70.1319 289.9812 15.30188427 98998
